NORAD_CAT_ID,OBJECT_NAME,OBJECT_TYPE,EPOCH,MEAN_MOTION,ECCENTRICITY,INCLINATION,RA_OF_ASC_NODE,ARG_OF_PERICENTER,MEAN_ANOMALY,BSTAR,MEAN_MOTION_DOT,MEAN_MOTION_DDOT,TLE_LINE0,TLE_LINE1,TLE_LINE2,SEMIMAJOR_AXIS,PERIOD,APOGEE,PERIGEE,DECAYED
55306.0,STARLINK-5295,PAYLOAD,2023-04-05 10:42:03,15.69934982,0.0002958,70.001,215.4702,261.4684,98.6177,3.3244e-05,3.788e-05,0.0,0 STARLINK-5295,1 55306U 23010AP  23095.44586853  .00003788  00000-0  33244-4 0  9993,2 55306  70.0010 215.4702 0002958 261.4684  98.6177 15.69934982 12743,6737.22,91.724,361.078,357.092,0.0
55306.0,STARLINK-5295,PAYLOAD,2023-04-05 19:52:34,15.69920708,0.0003511,70.0006,214.3953,270.2684,89.811,-9.7851e-06,-1.389e-05,0.0,0 STARLINK-5295,1 55306U 23010AP  23095.82817331 -.00001389  00000-0 -97851-5 0  9995,2 55306  70.0006 214.3953 0003511 270.2684  89.8110 15.69920708 12489,6737.261,91.724,361.491,356.76,0.0
55306.0,STARLINK-5295,PAYLOAD,2023-04-06 11:10:05,15.69912852,0.0002725,70.0014,212.6042,256.3473,103.7419,1.8551e-05,2.018e-05,0.0,0 STARLINK-5295,1 55306U 23010AP  23096.46534587  .00002018  00000-0  18551-4 0  9992,2 55306  70.0014 212.6042 0002725 256.3473 103.7419 15.69912852 12901,6737.283,91.725,360.984,357.312,0.0
55306.0,STARLINK-5295,PAYLOAD,2023-04-06 20:20:34,15.69957905,0.0003033,69.999,211.5296,267.1828,92.9021,-4.737e-05,-5.912e-05,0.0,0 STARLINK-5295,1 55306U 23010AP  23096.84762405 -.00005912  00000-0 -47370-4 0  9995,2 55306  69.9990 211.5296 0003033 267.1828  92.9021 15.69957905 12644,6737.154,91.722,361.063,356.976,0.0
55306.0,STARLINK-5295,PAYLOAD,2023-04-07 07:02:52,15.69917861,0.0003513,69.9984,210.2761,268.9441,91.1352,1.8262e-05,1.983e-05,0.0,0 STARLINK-5295,1 55306U 23010AP  23097.29366234  .00001983  00000-0  18262-4 0  9995,2 55306  69.9984 210.2761 0003513 268.9441  91.1352 15.69917861 12716,6737.269,91.725,361.501,356.767,0.0
55306.0,STARLINK-5295,PAYLOAD,2023-04-07 10:06:22,15.69929515,0.0003256,69.9987,209.9183,264.834,95.2484,1.4943e-06,-3.3e-07,0.0,0 STARLINK-5295,1 55306U 23010AP  23097.42109165 -.00000033  00000-0  14943-5 0  9997,2 55306  69.9987 209.9183 0003256 264.8340  95.2484 15.69929515 12731,6737.236,91.724,361.294,356.907,0.0
55306.0,STARLINK-5295,PAYLOAD,2023-04-08 10:34:25,15.69913182,0.0003101,69.9984,207.0517,264.9658,95.1183,1.0659e-05,1.069e-05,0.0,0 STARLINK-5295,1 55306U 23010AP  23098.44056752  .00001069  00000-0  10659-4 0  9991,2 55306  69.9984 207.0517 0003101 264.9658  95.1183 15.69913182 12895,6737.282,91.725,361.237,357.058,0.0
55306.0,STARLINK-5295,PAYLOAD,2023-04-08 19:44:54,15.69934874,0.0003584,69.9981,205.9771,270.8016,89.2769,1.6348e-05,1.754e-05,0.0,0 STARLINK-5295,1 55306U 23010AP  23098.82285229  .00001754  00000-0  16348-4 0  9998,2 55306  69.9981 205.9771 0003584 270.8016  89.2769 15.69934874 12952,6737.22,91.724,361.5,356.671,0.0
55306.0,STARLINK-5295,PAYLOAD,2023-04-09 06:27:11,15.69916811,0.000315,69.9989,204.7241,269.9626,90.1209,5.1517e-07,-1.51e-06,0.0,0 STARLINK-5295,1 55306U 23010AP  23099.26888495 -.00000151  00000-0  51517-6 0  9991,2 55306  69.9989 204.7241 0003150 269.9626  90.1209 15.69916811 13024,6737.272,91.725,361.259,357.015,0.0
55306.0,STARLINK-5295,PAYLOAD,2023-04-09 09:30:41,15.69920012,0.0003121,69.9986,204.3656,270.6494,89.4344,-5.4802e-07,-2.78e-06,0.0,0 STARLINK-5295,1 55306U 23010AP  23099.39631617 -.00000278  00000-0 -54802-6 0  9998,2 55306  69.9986 204.3656 0003121 270.6494  89.4344 15.69920012 13363,6737.263,91.724,361.231,357.025,0.0
55306.0,STARLINK-5295,PAYLOAD,2023-04-09 17:09:26,15.69930654,0.0003007,69.9987,203.4689,263.9979,96.0874,1.0372e-05,1.035e-05,0.0,0 STARLINK-5295,1 55306U 23010AP  23099.71488984  .00001035  00000-0  10372-4 0  9993,2 55306  69.9987 203.4689 0003007 263.9979  96.0874 15.69930654 13091,6737.232,91.724,361.123,357.072,0.0
55306.0,STARLINK-5295,PAYLOAD,2023-04-10 06:55:13,15.69921473,0.0002679,69.9996,201.8572,257.5133,102.5763,1.4575e-05,1.54e-05,0.0,0 STARLINK-5295,1 55306U 23010AP  23100.28834611  .00001540  00000-0  14575-4 0  9990,2 55306  69.9996 201.8572 0002679 257.5133 102.5763 15.69921473 13188,6737.259,91.724,360.929,357.319,0.0
55306.0,STARLINK-5295,PAYLOAD,2023-04-10 08:26:58,15.69928487,0.0002801,69.9976,201.6764,259.7438,100.3442,-4.9024e-06,-8.02e-06,0.0,0 STARLINK-5295,1 55306U 23010AP  23100.35206303 -.00000802  00000-0 -49024-5 0  9999,2 55306  69.9976 201.6764 0002801 259.7438 100.3442 15.69928487 13515,6737.239,91.724,360.991,357.216,0.0
55306.0,STARLINK-5295,PAYLOAD,2023-04-11 08:55:00,15.69916823,0.0002747,70.0008,198.8143,267.0762,93.012,8.6607e-06,8.29e-06,0.0,0 STARLINK-5295,1 55306U 23010AP  23101.37153564  .00000829  00000-0  86607-5 0  9997,2 55306  70.0008 198.8143 0002747 267.0762  93.0120 15.69916823 13357,6737.272,91.725,360.988,357.286,0.0
55306.0,STARLINK-5295,PAYLOAD,2023-04-12 12:26:31,15.69945918,0.0002518,70.0008,195.5895,255.2847,104.807,1.2091e-05,1.243e-05,0.0,0 STARLINK-5295,1 55306U 23010AP  23102.51841605  .00001243  00000-0  12091-4 0  9990,2 55306  70.0008 195.5895 0002518 255.2847 104.8070 15.69945918 13536,6737.189,91.723,360.75,357.357,0.0
55306.0,STARLINK-5295,PAYLOAD,2023-04-13 08:19:18,15.69922269,0.0003465,69.9992,193.2596,265.0357,95.0444,2.3311e-05,2.591e-05,0.0,0 STARLINK-5295,1 55306U 23010AP  23103.34674761  .00002591  00000-0  23311-4 0  9993,2 55306  69.9992 193.2596 0003465 265.0357  95.0444 15.69922269 13984,6737.256,91.724,361.456,356.787,0.0
55306.0,STARLINK-5295,PAYLOAD,2023-04-13 19:01:34,15.69930074,0.0003514,69.9996,192.0069,267.2327,92.8466,1.3712e-05,1.437e-05,0.0,0 STARLINK-5295,1 55306U 23010AP  23103.79275972  .00001437  00000-0  13712-4 0  9995,2 55306  69.9996 192.0069 0003514 267.2327  92.8466 15.69930074 13731,6737.234,91.724,361.467,356.732,0.0
55306.0,STARLINK-5295,PAYLOAD,2023-04-14 08:47:21,15.69917736,0.0002817,69.9995,190.3947,247.0502,113.0396,2.1307e-05,2.349e-05,0.0,0 STARLINK-5295,1 55306U 23010AP  23104.36621551  .00002349  00000-0  21307-4 0  9999,2 55306  69.9995 190.3947 0002817 247.0502 113.0396 15.69917736 14146,6737.269,91.725,361.032,357.236,0.0
55306.0,STARLINK-5295,PAYLOAD,2023-04-15 07:43:38,15.6992391,0.0003442,69.9977,187.7052,270.0761,90.0041,-1.9354e-06,-4.46e-06,0.0,0 STARLINK-5295,1 55306U 23010AP  23105.32197175 -.00000446  00000-0 -19354-5 0  9994,2 55306  69.9977 187.7052 0003442 270.0761  90.0041 15.69923910 13973,6737.252,91.724,361.436,356.798,0.0
55306.0,STARLINK-5295,PAYLOAD,2023-04-15 13:50:38,15.69932853,0.0003319,69.9979,186.9879,266.7756,93.306,1.1732e-06,-7.2e-07,0.0,0 STARLINK-5295,1 55306U 23010AP  23105.57683117 -.00000072  00000-0  11732-5 0  9993,2 55306  69.9979 186.9879 0003319 266.7756  93.3060 15.69932853 14011,6737.226,91.724,361.327,356.855,0.0
55306.0,STARLINK-5295,PAYLOAD,2023-04-15 15:22:23,15.69933464,0.0003372,69.9976,186.8086,267.5296,92.5514,2.248e-06,5.8e-07,0.0,0 STARLINK-5295,1 55306U 23010AP  23105.64054715  .00000058  00000-0  22480-5 0  9992,2 55306  69.9976 186.8086 0003372 267.5296  92.5514 15.69933464 14344,6737.224,91.724,361.361,356.818,0.0
55306.0,STARLINK-5295,PAYLOAD,2023-04-16 12:46:55,15.69924803,0.0003566,69.9972,184.3032,263.9004,96.1786,-5.5574e-06,-8.81e-06,0.0,0 STARLINK-5295,1 55306U 23010AP  23106.53258684 -.00000881  00000-0 -55574-5 0  9998,2 55306  69.9972 184.3032 0003566 263.9004  96.1786 15.69924803 14489,6737.249,91.724,361.517,356.712,0.0
55306.0,STARLINK-5295,PAYLOAD,2023-04-16 14:18:41,15.69919297,0.0003257,69.9987,184.1242,261.0484,99.0343,-1.0079e-05,-1.424e-05,0.0,0 STARLINK-5295,1 55306U 23010AP  23106.59630847 -.00001424  00000-0 -10079-4 0  9993,2 55306  69.9987 184.1242 0003257 261.0484  99.0343 15.69919297 14497,6737.265,91.724,361.324,356.936,0.0
55306.0,STARLINK-5295,PAYLOAD,2023-04-17 13:14:57,15.69925058,0.0002726,69.9984,181.4352,255.6435,104.4458,1.2492e-05,1.29e-05,0.0,0 STARLINK-5295,1 55306U 23010AP  23107.55205347  .00001290  00000-0  12492-4 0  9993,2 55306  69.9984 181.4352 0002726 255.6435 104.4458 15.69925058 14323,6737.248,91.724,360.95,357.277,0.0
55306.0,STARLINK-5295,PAYLOAD,2023-04-17 14:46:43,15.69917615,0.000253,69.9979,181.2558,271.8562,88.2344,1.5154e-06,-3e-07,0.0,0 STARLINK-5295,1 55306U 23010AP  23107.61577878 -.00000030  00000-0  15154-5 0  9992,2 55306  69.9979 181.2558 0002530 271.8562  88.2344 15.69917615 14656,6737.27,91.725,360.839,357.43,0.0
55306.0,STARLINK-5295,PAYLOAD,2023-04-18 07:35:58,15.69925498,0.0003392,69.9973,179.2856,266.4257,93.6551,8.474e-06,8.06e-06,0.0,0 STARLINK-5295,1 55306U 23010AP  23108.31665380  .00000806  00000-0  84740-5 0  9993,2 55306  69.9973 179.2856 0003392 266.4257  93.6551 15.69925498 14766,6737.247,91.724,361.397,356.827,0.0
55306.0,STARLINK-5295,PAYLOAD,2023-04-18 13:42:59,15.69922601,0.0003391,69.9978,178.5695,265.87,94.2108,8.5006e-08,-2.03e-06,0.0,0 STARLINK-5295,1 55306U 23010AP  23108.57152425 -.00000203  00000-0  85006-7 0  9992,2 55306  69.9978 178.5695 0003391 265.8700  94.2108 15.69922601 14802,6737.255,91.724,361.405,356.836,0.0
55306.0,STARLINK-5295,PAYLOAD,2023-04-19 05:00:30,15.69936821,0.0003536,69.9989,176.7777,264.0776,96.0017,-2.5882e-06,-5.24e-06,0.0,0 STARLINK-5295,1 55306U 23010AP  23109.20868411 -.00000524  00000-0 -25882-5 0  9993,2 55306  69.9989 176.7777 0003536 264.0776  96.0017 15.69936821 14583,6737.215,91.723,361.462,356.697,0.0
55306.0,STARLINK-5295,PAYLOAD,2023-04-19 08:04:00,15.6992352,0.0003219,69.9973,176.4191,264.256,95.8269,1.7939e-05,1.945e-05,0.0,0 STARLINK-5295,1 55306U 23010AP  23109.33612105  .00001945  00000-0  17939-4 0  9993,2 55306  69.9973 176.4191 0003219 264.2560  95.8269 15.69923520 14920,6737.253,91.724,361.287,356.949,0.0
55306.0,STARLINK-5295,PAYLOAD,2023-04-19 14:11:02,15.69905705,0.0002296,69.9979,175.7035,284.3975,75.6966,-1.1311e-06,-3.48e-06,0.0,0 STARLINK-5295,1 55306U 23010AP  23109.59100644 -.00000348  00000-0 -11311-5 0  9998,2 55306  69.9979 175.7035 0002296 284.3975  75.6966 15.69905705 14961,6737.304,91.725,360.716,357.622,0.0
